{
  "links" : {
    "next" : "https://api.nasa.gov/neo/rest/v1/feed?start_date=2000-01-09&end_date=2000-01-09&detailed=true&api_key=t0TVs3DtDT2H8Oy2Zy8m2eVrNsAVKAexjcZXUckd",
    "prev" : "https://api.nasa.gov/neo/rest/v1/feed?start_date=2000-01-07&end_date=2000-01-07&detailed=true&api_key=t0TVs3DtDT2H8Oy2Zy8m2eVrNsAVKAexjcZXUckd",
    "self" : "https://api.nasa.gov/neo/rest/v1/feed?start_date=2000-01-08&end_date=2000-01-08&detailed=true&api_key=t0TVs3DtDT2H8Oy2Zy8m2eVrNsAVKAexjcZXUckd"
  },
  "element_count" : 3,
  "near_earth_objects" : {
    "2000-01-08" : [ {
      "links" : {
        "self" : "https://api.nasa.gov/neo/rest/v1/neo/2152742?api_key=t0TVs3DtDT2H8Oy2Zy8m2eVrNsAVKAexjcZXUckd"
      },
      "neo_reference_id" : "2152742",
      "name" : "152742 (1998 XE12)",
      "nasa_jpl_url" : "http://ssd.jpl.nasa.gov/sbdb.cgi?sstr=2152742",
      "absolute_magnitude_h" : 19.1,
      "estimated_diameter" : {
        "kilometers" : {
          "estimated_diameter_min" : 0.4023045798,
          "estimated_diameter_max" : 0.8995803882
        },
        "meters" : {
          "estimated_diameter_min" : 402.3045798343,
          "estimated_diameter_max" : 899.5803881691
        },
        "miles" : {
          "estimated_diameter_min" : 0.2499803991,
          "estimated_diameter_max" : 0.5589731654
        },
        "feet" : {
          "estimated_diameter_min" : 1319.8969577037,
          "estimated_diameter_max" : 2951.3793207207
        }
      },
      "is_potentially_hazardous_asteroid" : false,
      "close_approach_data" : [ {
        "close_approach_date" : "2000-01-08",
        "epoch_date_close_approach" : 947318400000,
        "relative_velocity" : {
          "kilometers_per_second" : "18.2607870636",
          "kilometers_per_hour" : "65738.8334288768",
          "miles_per_hour" : "40847.5545825152"
        },
        "miss_distance" : {
          "astronomical" : "0.497936857",
          "lunar" : "193.6974334717",
          "kilometers" : "74490296",
          "miles" : "46286120"
        },
        "orbiting_body" : "Earth"
      } ],
      "orbital_data" : {
        "orbit_id" : "71",
        "orbit_determination_date" : "2017-04-06 09:27:14",
        "orbit_uncertainty" : "0",
        "minimum_orbit_intersection" : ".111797",
        "jupiter_tisserand_invariant" : "6.463",
        "epoch_osculation" : "2458000.5",
        "eccentricity" : ".7390895273161292",
        "semi_major_axis" : ".8782243001254169",
        "inclination" : "13.43312251596236",
        "ascending_node_longitude" : "280.060369451613",
        "orbital_period" : "300.6121996271545",
        "perihelion_distance" : ".2291379172681841",
        "perihelion_argument" : "353.1103934290666",
        "aphelion_distance" : "1.52731068298265",
        "perihelion_time" : "2457980.802063873500",
        "mean_anomaly" : "23.58938530883056",
        "mean_motion" : "1.197556188493027",
        "equinox" : "J2000"
      }
    }, {
      "links" : {
        "self" : "https://api.nasa.gov/neo/rest/v1/neo/2344133?api_key=t0TVs3DtDT2H8Oy2Zy8m2eVrNsAVKAexjcZXUckd"
      },
      "neo_reference_id" : "2344133",
      "name" : "344133 (2000 AD6)",
      "nasa_jpl_url" : "http://ssd.jpl.nasa.gov/sbdb.cgi?sstr=2344133",
      "absolute_magnitude_h" : 18.4,
      "estimated_diameter" : {
        "kilometers" : {
          "estimated_diameter_min" : 0.5553349116,
          "estimated_diameter_max" : 1.2417666126
        },
        "meters" : {
          "estimated_diameter_min" : 555.334911581,
          "estimated_diameter_max" : 1241.766612574
        },
        "miles" : {
          "estimated_diameter_min" : 0.3450690093,
          "estimated_diameter_max" : 0.7715977618
        },
        "feet" : {
          "estimated_diameter_min" : 1821.9649913114,
          "estimated_diameter_max" : 4074.0375731972
        }
      },
      "is_potentially_hazardous_asteroid" : false,
      "close_approach_data" : [ {
        "close_approach_date" : "2000-01-08",
        "epoch_date_close_approach" : 947318400000,
        "relative_velocity" : {
          "kilometers_per_second" : "15.7452042665",
          "kilometers_per_hour" : "56682.7353594976",
          "miles_per_hour" : "35220.4474237945"
        },
        "miss_distance" : {
          "astronomical" : "0.3850992061",
          "lunar" : "149.8035888672",
          "kilometers" : "57610020",
          "miles" : "35797208"
        },
        "orbiting_body" : "Earth"
      } ],
      "orbital_data" : {
        "orbit_id" : "20",
        "orbit_determination_date" : "2017-04-06 09:23:14",
        "orbit_uncertainty" : "0",
        "minimum_orbit_intersection" : ".317889",
        "jupiter_tisserand_invariant" : "3.374",
        "epoch_osculation" : "2458000.5",
        "eccentricity" : ".4240927760946192",
        "semi_major_axis" : "2.212320328764996",
        "inclination" : "30.07087779931174",
        "ascending_node_longitude" : "112.8041242642242",
        "orbital_period" : "1201.905830405538",
        "perihelion_distance" : "1.274091258928488",
        "perihelion_argument" : "335.2721638352003",
        "aphelion_distance" : "3.150549398601503",
        "perihelion_time" : "2457528.731568212528",
        "mean_anomaly" : "141.3061083048286",
        "mean_motion" : ".2995242979048794",
        "equinox" : "J2000"
      }
    }, {
      "links" : {
        "self" : "https://api.nasa.gov/neo/rest/v1/neo/3264547?api_key=t0TVs3DtDT2H8Oy2Zy8m2eVrNsAVKAexjcZXUckd"
      },
      "neo_reference_id" : "3264547",
      "name" : "(2004 YA5)",
      "nasa_jpl_url" : "http://ssd.jpl.nasa.gov/sbdb.cgi?sstr=3264547",
      "absolute_magnitude_h" : 22.6,
      "estimated_diameter" : {
        "kilometers" : {
          "estimated_diameter_min" : 0.0802703167,
          "estimated_diameter_max" : 0.1794898848
        },
        "meters" : {
          "estimated_diameter_min" : 80.2703167283,
          "estimated_diameter_max" : 179.4898847799
        },
        "miles" : {
          "estimated_diameter_min" : 0.049877647,
          "estimated_diameter_max" : 0.1115298092
        },
        "feet" : {
          "estimated_diameter_min" : 263.3540659348,
          "estimated_diameter_max" : 588.8775935812
        }
      },
      "is_potentially_hazardous_asteroid" : false,
      "close_approach_data" : [ {
        "close_approach_date" : "2000-01-08",
        "epoch_date_close_approach" : 947318400000,
        "relative_velocity" : {
          "kilometers_per_second" : "16.1815395346",
          "kilometers_per_hour" : "58253.5423247288",
          "miles_per_hour" : "36196.4857850517"
        },
        "miss_distance" : {
          "astronomical" : "0.3627191174",
          "lunar" : "141.0977325439",
          "kilometers" : "54262008",
          "miles" : "33716848"
        },
        "orbiting_body" : "Earth"
      } ],
      "orbital_data" : {
        "orbit_id" : "9",
        "orbit_determination_date" : "2017-04-06 09:11:38",
        "orbit_uncertainty" : "8",
        "minimum_orbit_intersection" : ".0519144",
        "jupiter_tisserand_invariant" : "7.019",
        "epoch_osculation" : "2453361.5",
        "eccentricity" : ".5364439594268127",
        "semi_major_axis" : ".8089051742716331",
        "inclination" : "28.18317025329182",
        "ascending_node_longitude" : "269.9480312561536",
        "orbital_period" : "265.7326062658286",
        "perihelion_distance" : ".3749728797845223",
        "perihelion_argument" : "31.22114436780625",
        "aphelion_distance" : "1.242837468758744",
        "perihelion_time" : "2453289.308691542408",
        "mean_anomaly" : "97.800835998029",
        "mean_motion" : "1.354745302275288",
        "equinox" : "J2000"
      }
    } ]
  }
}